NORAD_CAT_ID,OBJECT_NAME,OBJECT_TYPE,EPOCH,MEAN_MOTION,ECCENTRICITY,INCLINATION,RA_OF_ASC_NODE,ARG_OF_PERICENTER,MEAN_ANOMALY,BSTAR,MEAN_MOTION_DOT,MEAN_MOTION_DDOT,TLE_LINE0,TLE_LINE1,TLE_LINE2,SEMIMAJOR_AXIS,PERIOD,APOGEE,PERIGEE,DECAYED
56775.0,STARLINK-6292,PAYLOAD,2024-07-10 21:56:04,14.98329863,0.000301,70.0001,34.5018,269.7465,90.3349,4.165e-07,-8.8e-07,0.0,0 STARLINK-6292,1 56775U 23078J   24192.91394113 -.00000088  00000-0  41650-6 0  9998,2 56775  70.0001  34.5018 0003010 269.7465  90.3349 14.98329863 62777,6950.193,96.107,574.15,569.966,0.0
56775.0,STARLINK-6292,PAYLOAD,2024-07-11 13:57:24,14.98332304,0.0002949,70.0004,32.8186,270.9088,89.1733,4.6055e-05,4.57e-06,0.0,0 STARLINK-6292,1 56775U 23078J   24193.58153796  .00000457  00000-0  46055-4 0  9993,2 56775  70.0004  32.8186 0002949 270.9088  89.1733 14.98332304 62870,6950.186,96.107,574.1,570.001,0.0
56775.0,STARLINK-6292,PAYLOAD,2024-07-12 13:59:25,14.98330116,0.0002797,70.0006,30.294,270.512,89.5719,7.0943e-06,-8e-08,0.0,0 STARLINK-6292,1 56775U 23078J   24194.58293935 -.00000008  00000-0  70943-5 0  9991,2 56775  70.0006  30.2940 0002797 270.5120  89.5719 14.98330116 63021,6950.193,96.107,574.002,570.114,0.0
56775.0,STARLINK-6292,PAYLOAD,2024-07-12 20:23:58,14.98330219,0.0002838,70.0006,29.6208,269.6065,90.4769,-2.9271e-05,-4.42e-06,0.0,0 STARLINK-6292,1 56775U 23078J   24194.84998016 -.00000442  00000-0 -29271-4 0  9992,2 56775  70.0006  29.6208 0002838 269.6065  90.4769 14.98330219 63326,6950.192,96.107,574.03,570.085,0.0
56775.0,STARLINK-6292,PAYLOAD,2024-07-12 22:00:06,14.98330877,0.0002836,70.0006,29.4525,269.4423,90.6411,-2.1331e-05,-3.47e-06,0.0,0 STARLINK-6292,1 56775U 23078J   24194.91673944 -.00000347  00000-0 -21331-4 0  9993,2 56775  70.0006  29.4525 0002836 269.4423  90.6411 14.98330877 63078,6950.19,96.107,574.026,570.084,0.0
56775.0,STARLINK-6292,PAYLOAD,2024-07-13 14:01:26,14.98332557,0.000285,70.0006,27.7694,267.991,92.0922,-4.4536e-05,-6.24e-06,0.0,0 STARLINK-6292,1 56775U 23078J   24195.58433830 -.00000624  00000-0 -44536-4 0  9995,2 56775  70.0006  27.7694 0002850 267.9910  92.0922 14.98332557 63177,6950.185,96.107,574.031,570.069,0.0
56775.0,STARLINK-6292,PAYLOAD,2024-07-13 20:25:59,14.98331498,0.0002875,70.0007,27.096,267.959,92.124,-5.0844e-05,-7e-06,0.0,0 STARLINK-6292,1 56775U 23078J   24195.85137879 -.00000700  00000-0 -50844-4 0  9993,2 56775  70.0007  27.0960 0002875 267.9590  92.1240 14.98331498 63478,6950.188,96.107,574.051,570.055,0.0
56775.0,STARLINK-6292,PAYLOAD,2024-07-13 22:02:07,14.98332192,0.0002871,70.0007,26.9277,268.1732,91.9099,-4.1663e-05,-5.9e-06,0.0,0 STARLINK-6292,1 56775U 23078J   24195.91813804 -.00000590  00000-0 -41663-4 0  9995,2 56775  70.0007  26.9277 0002871 268.1732  91.9099 14.98332192 63228,6950.186,96.107,574.047,570.056,0.0
56775.0,STARLINK-6292,PAYLOAD,2024-07-14 14:03:27,14.98329653,0.0002939,70.0007,25.2445,268.9416,91.1407,3.1714e-05,2.85e-06,0.0,0 STARLINK-6292,1 56775U 23078J   24196.58573689  .00000285  00000-0  31714-4 0  9998,2 56775  70.0007  25.2445 0002939 268.9416  91.1407 14.98329653 63323,6950.194,96.107,574.102,570.016,0.0
56775.0,STARLINK-6292,PAYLOAD,2024-07-14 20:27:59,14.9833227,0.0002957,70.0007,24.5711,268.6366,91.4454,3.4987e-05,3.25e-06,0.0,0 STARLINK-6292,1 56775U 23078J   24196.85277490  .00000325  00000-0  34987-4 0  9999,2 56775  70.0007  24.5711 0002957 268.6366  91.4454 14.98332270 63629,6950.186,96.107,574.106,569.996,0.0
56775.0,STARLINK-6292,PAYLOAD,2024-07-14 22:04:07,14.98333036,0.000295,70.0008,24.4028,268.6701,91.412,4.3028e-05,4.2e-06,0.0,0 STARLINK-6292,1 56775U 23078J   24196.91953411  .00000420  00000-0  43028-4 0  9992,2 56775  70.0008  24.4028 0002950 268.6701  91.4120 14.98333036 63379,6950.184,96.107,574.099,569.998,0.0
56775.0,STARLINK-6292,PAYLOAD,2024-07-15 12:29:20,14.98320498,0.0003302,70.0001,22.8858,269.1813,90.8967,6.7394e-05,7.11e-06,0.0,0 STARLINK-6292,1 56775U 23078J   24197.52037997  .00000711  00000-0  67394-4 0  9997,2 56775  70.0001  22.8858 0003302 269.1813  90.8967 14.98320498 63726,6950.222,96.108,574.382,569.792,0.0
56775.0,STARLINK-6292,PAYLOAD,2024-07-15 14:05:28,14.9832089,0.0003282,70.0001,22.7178,269.2985,90.7798,5.6112e-05,5.76e-06,0.0,0 STARLINK-6292,1 56775U 23078J   24197.58714041  .00000576  00000-0  56112-4 0  9990,2 56775  70.0001  22.7178 0003282 269.2985  90.7798 14.98320890 63477,6950.221,96.108,574.367,569.805,0.0
56775.0,STARLINK-6292,PAYLOAD,2024-07-15 22:06:09,14.9832827,0.0002996,70.0009,21.8784,268.5528,91.5288,1.8671e-06,-7.1e-07,0.0,0 STARLINK-6292,1 56775U 23078J   24197.92093841 -.00000071  00000-0  18671-5 0  9996,2 56775  70.0009  21.8784 0002996 268.5528  91.5288 14.98328270 63523,6950.198,96.107,574.146,569.981,0.0
56775.0,STARLINK-6292,PAYLOAD,2024-07-16 12:31:21,14.98329257,0.0003107,70.0006,20.3619,270.2993,89.781,4.2603e-05,4.15e-06,0.0,0 STARLINK-6292,1 56775U 23078J   24198.52177623  .00000415  00000-0  42603-4 0  9996,2 56775  70.0006  20.3619 0003107 270.2993  89.7810 14.98329257 63876,6950.195,96.107,574.22,569.901,0.0
56775.0,STARLINK-6292,PAYLOAD,2024-07-16 14:07:29,14.98329629,0.0003117,70.0005,20.1939,270.404,89.6762,4.1091e-05,3.97e-06,0.0,0 STARLINK-6292,1 56775U 23078J   24198.58853606  .00000397  00000-0  41091-4 0  9993,2 56775  70.0005  20.1939 0003117 270.4040  89.6762 14.98329629 63625,6950.194,96.107,574.225,569.893,0.0
56775.0,STARLINK-6292,PAYLOAD,2024-07-16 22:08:09,14.98339085,0.000308,70.0006,19.3525,271.3615,88.7191,4.7179e-05,4.7e-06,0.0,0 STARLINK-6292,1 56775U 23078J   24198.92232926  .00000470  00000-0  47179-4 0  9992,2 56775  70.0006  19.3525 0003080 271.3615  88.7191 14.98339085 63672,6950.165,96.106,574.17,569.889,0.0
56775.0,STARLINK-6292,PAYLOAD,2024-07-17 12:33:22,14.98321415,0.0003011,70.0007,17.8372,271.7837,88.2977,3.3523e-05,3.07e-06,0.0,0 STARLINK-6292,1 56775U 23078J   24199.52318122  .00000307  00000-0  33523-4 0  9999,2 56775  70.0007  17.8372 0003011 271.7837  88.2977 14.98321415 64025,6950.219,96.108,574.177,569.992,0.0
56775.0,STARLINK-6292,PAYLOAD,2024-07-17 14:09:31,14.98319355,0.0002993,70.0007,17.6689,271.6707,88.411,4.8921e-05,4.91e-06,0.0,0 STARLINK-6292,1 56775U 23078J   24199.58994250  .00000491  00000-0  48921-4 0  9999,2 56775  70.0007  17.6689 0002993 271.6707  88.4110 14.98319355 63779,6950.226,96.108,574.171,570.011,0.0
56775.0,STARLINK-6292,PAYLOAD,2024-07-17 22:10:11,14.98312725,0.0002619,70.0007,16.8271,272.8577,87.2282,0.00031372,3.651e-05,0.0,0 STARLINK-6292,1 56775U 23078J   24199.92374191  .00003651  00000-0  31372-3 0  9995,2 56775  70.0007  16.8271 0002619 272.8577  87.2282 14.98312725 63827,6950.246,96.108,573.932,570.291,0.0
56775.0,STARLINK-6292,PAYLOAD,2024-07-18 04:34:42,14.98349777,0.0003067,70.0013,16.1544,276.3691,83.7118,-0.00037394,-4.554e-05,0.0,0 STARLINK-6292,1 56775U 23078J   24200.19077367 -.00004554  00000-0 -37394-3 0  9997,2 56775  70.0013  16.1544 0003067 276.3691  83.7118 14.98349777 64124,6950.132,96.106,574.128,569.865,0.0
56775.0,STARLINK-6292,PAYLOAD,2024-07-18 12:35:23,14.98330248,0.0002681,70.0015,15.313,267.9897,92.0955,6.0583e-05,6.3e-06,0.0,0 STARLINK-6292,1 56775U 23078J   24200.52457685  .00000630  00000-0  60583-4 0  9995,2 56775  70.0015  15.3130 0002681 267.9897  92.0955 14.98330248 64173,6950.192,96.107,573.92,570.194,0.0
56775.0,STARLINK-6292,PAYLOAD,2024-07-18 14:11:31,14.98324779,0.0002774,70.0013,15.1448,266.0797,94.0045,0.00011025,1.223e-05,0.0,0 STARLINK-6292,1 56775U 23078J   24200.59133872  .00001223  00000-0  11025-3 0  9996,2 56775  70.0013  15.1448 0002774 266.0797  94.0045 14.98324779 63929,6950.209,96.107,574.002,570.146,0.0
56775.0,STARLINK-6292,PAYLOAD,2024-07-18 22:12:11,14.98334153,0.0002708,70.0014,14.3034,261.7544,98.3308,1.5e-05,8.6e-07,0.0,0 STARLINK-6292,1 56775U 23078J   24200.92513451  .00000086  00000-0  15000-4 0  9992,2 56775  70.0014  14.3034 0002708 261.7544  98.3308 14.98334153 63972,6950.18,96.107,573.927,570.163,0.0
56775.0,STARLINK-6292,PAYLOAD,2024-07-19 12:37:24,14.98328788,0.0002754,70.0012,12.7883,262.276,97.8086,5.8151e-05,6.01e-06,0.0,0 STARLINK-6292,1 56775U 23078J   24201.52597586  .00000601  00000-0  58151-4 0  9997,2 56775  70.0012  12.7883 0002754 262.2760  97.8086 14.98328788 64325,6950.197,96.107,573.976,570.148,0.0
56775.0,STARLINK-6292,PAYLOAD,2024-07-19 14:13:32,14.98328995,0.0002755,70.0012,12.6199,262.0778,98.0069,5.8853e-05,6.09e-06,0.0,0 STARLINK-6292,1 56775U 23078J   24201.59273570  .00000609  00000-0  58853-4 0  9995,2 56775  70.0012  12.6199 0002755 262.0778  98.0069 14.98328995 64078,6950.196,96.107,573.976,570.146,0.0
56775.0,STARLINK-6292,PAYLOAD,2024-07-19 20:38:04,14.98331296,0.0002782,70.0012,11.9466,270.089,89.995,8.0455e-05,8.67e-06,0.0,0 STARLINK-6292,1 56775U 23078J   24201.85977408  .00000867  00000-0  80455-4 0  9994,2 56775  70.0012  11.9466 0002782 270.0890  89.9950 14.98331296 64112,6950.189,96.107,573.987,570.12,0.0
56775.0,STARLINK-6292,PAYLOAD,2024-07-20 12:39:25,14.98329231,0.0002792,70.0017,10.2641,268.8615,91.2224,4.304e-06,-4.2e-07,0.0,0 STARLINK-6292,1 56775U 23078J   24202.52737662 -.00000042  00000-0  43040-5 0  9991,2 56775  70.0017  10.2641 0002792 268.8615  91.2224 14.98329231 64470,6950.195,96.107,574.001,570.12,0.0
56775.0,STARLINK-6292,PAYLOAD,2024-07-20 14:15:33,14.98329019,0.0002792,70.0016,10.0957,268.7359,91.348,2.825e-07,-9e-07,0.0,0 STARLINK-6292,1 56775U 23078J   24202.59413681 -.00000090  00000-0  28250-6 0  9990,2 56775  70.0016  10.0957 0002792 268.7359  91.3480 14.98329019 64223,6950.196,96.107,574.001,570.12,0.0
56775.0,STARLINK-6292,PAYLOAD,2024-07-20 20:40:05,14.98329191,0.0003032,70.0016,9.4227,273.1902,86.891,4.102e-08,-9.2e-07,0.0,0 STARLINK-6292,1 56775U 23078J   24202.86117663 -.00000092  00000-0  41020-7 0  9994,2 56775  70.0016   9.4227 0003032 273.1902  86.8910 14.98329191 64269,6950.195,96.107,574.168,569.953,0.0
